1 56899U 23083Z   25358.09868896  .00000320  00000+0  38729-4 0  9997
2 56899  43.0016 132.1611 0001255 270.2635  89.8063 15.02528545140417
